STARLINK-35934          
1 67542U 26014L   26035.25004630 -.00062425  00000+0 -32690-3 0  9996
2 67542  97.2787 278.4637 0001638  82.1346 321.1938 15.80854385  3305
STARLINK-36581          
1 67543U 26014M   26035.25004630  .00043336  00000+0  22601-3 0  9996
2 67543  97.2788 278.4667 0001589  69.1214 341.0006 15.80801095  3312
STARLINK-36565          
1 67544U 26014N   26035.25004630  .00074192  00000+0  38608-3 0  9995
2 67544  97.2779 278.4679 0000854 122.7266 293.4247 15.80742462  3312
STARLINK-36583          
1 67545U 26014P   26035.25004630 -.00147020  00000+0 -77699-3 0  9992
2 67545  97.2778 278.4706 0000972  83.3595 338.8245 15.80895291  3312
STARLINK-36580          
1 67546U 26014Q   26035.25004630 -.00423953  00000+0 -22923-2 0  9994
2 67546  97.2778 278.4736 0001374  89.9072 339.9634 15.81092542  3318
STARLINK-36584          
1 67547U 26014R   26035.25004630 -.00654142  00000+0 -35998-2 0  9997
2 67547  97.2775 278.4756 0001004  93.0680 342.1834 15.81279422  3311
STARLINK-36586          
1 67548U 26014S   26035.25004630 -.01070638  00000+0 -60808-2 0  9999
2 67548  97.2783 278.4795 0001429  87.0575 355.7349 15.81643050  3314
STARLINK-36564          
1 67549U 26014T   26035.25004630 -.01300972  00000+0 -73206-2 0  9993
2 67549  97.2787 278.4829 0001515  73.8684  15.4434 15.81933304  3259
STARLINK-36563          
1 67550U 26014U   26035.25004630 -.01522077  00000+0 -84415-2 0  9991
2 67550  97.2776 278.4842 0001683  71.0489  24.7109 15.82224927  3317
STARLINK-36566          
1 67551U 26014V   26035.25004630 -.01557745  00000+0 -85830-2 0  9994
2 67551  97.2773 278.4866 0001502  84.6655  16.9627 15.82433709  3314
STARLINK-36567          
1 67552U 26014W   26035.25004630 -.01569311  00000+0 -85779-2 0  9999
2 67552  97.2772 278.4892 0001610  79.0277  28.5245 15.82624334  3312
STARLINK-36569          
1 67553U 26014X   26035.25004630 -.01590164  00000+0 -85991-2 0  9996
2 67553  97.2768 278.4915 0001634  85.2736  30.0503 15.82890843  3314
STARLINK-36395          
1 67554U 26014Y   26035.25004630 -.01581040  00000+0 -82780-2 0  9993
2 67554  97.2769 278.5008 0001627  87.4569  48.4374 15.83555076  3316
STARLINK-36559          
1 67555U 26014Z   26035.25004630 -.01584813  00000+0 -83802-2 0  9991
2 67555  97.2771 278.4981 0001657  84.1593  45.4742 15.83353663  3317
STARLINK-36426          
1 67560U 26014AA  26035.25004630 -.01589390  00000+0 -85186-2 0  9999
2 67560  97.2768 278.4941 0001793  84.9390  36.2308 15.83075883  2151
STARLINK-36621          
1 67561U 26016A   26035.25004630 -.01750728  00000+0 -78921-2 0  9996
2 67561  97.2816  93.9449 0001589  76.6347 151.7193 15.86959880  2675
